{
    "links": {
        "self": "http://www.neowsapp.com/rest/v1/neo/3624749?api_key=iIulBulltgU6a56xZRHN4H3l9WmuAYTsLGpBGhQ2"
    },
    "id": "3624749",
    "neo_reference_id": "3624749",
    "name": "(2013 BM18)",
    "designation": "2013 BM18",
    "nasa_jpl_url": "http://ssd.jpl.nasa.gov/sbdb.cgi?sstr=3624749",
    "absolute_magnitude_h": 27.0,
    "estimated_diameter": {
        "kilometers": {
            "estimated_diameter_min": 0.0105816886,
            "estimated_diameter_max": 0.023661375
        },
        "meters": {
            "estimated_diameter_min": 10.5816885933,
            "estimated_diameter_max": 23.6613750114
        },
        "miles": {
            "estimated_diameter_min": 0.0065751544,
            "estimated_diameter_max": 0.0147024923
        },
        "feet": {
            "estimated_diameter_min": 34.7168272045,
            "estimated_diameter_max": 77.6291855923
        }
    },
    "is_potentially_hazardous_asteroid": false,
    "close_approach_data": [
        {
            "close_approach_date": "2013-01-14",
            "close_approach_date_full": "2013-Jan-14 13:45",
            "epoch_date_close_approach": 1358171100000,
            "relative_velocity": {
                "kilometers_per_second": "9.0896339912",
                "kilometers_per_hour": "32722.682368193",
                "miles_per_hour": "20332.6022748364"
            },
            "miss_distance": {
                "astronomical": "0.0076048392",
                "lunar": "2.9582824488",
                "kilometers": "1137667.746012504",
                "miles": "706913.9573363952"
            },
            "orbiting_body": "Moon"
        },
        {
            "close_approach_date": "2013-01-14",
            "close_approach_date_full": "2013-Jan-14 22:40",
            "epoch_date_close_approach": 1358203200000,
            "relative_velocity": {
                "kilometers_per_second": "8.9654499455",
                "kilometers_per_hour": "32275.6198036413",
                "miles_per_hour": "20054.8149829904"
            },
            "miss_distance": {
                "astronomical": "0.0060155648",
                "lunar": "2.3400547072",
                "kilometers": "899915.680926976",
                "miles": "559181.6745292288"
            },
            "orbiting_body": "Earth"
        }
    ],
    "orbital_data": {
        "orbit_id": "4",
        "orbit_determination_date": "2017-04-06 08:47:06",
        "first_observation_date": "2013-01-17",
        "last_observation_date": "2013-01-19",
        "data_arc_in_days": 2,
        "observations_used": 22,
        "orbit_uncertainty": "8",
        "minimum_orbit_intersection": ".00567453",
        "jupiter_tisserand_invariant": "4.123",
        "epoch_osculation": "2456310.5",
        "eccentricity": ".4369836424982184",
        "semi_major_axis": "1.670549610504705",
        "inclination": "8.421591071484382",
        "ascending_node_longitude": "116.8178050760154",
        "orbital_period": "788.655784503846",
        "perihelion_distance": ".9405467567323792",
        "perihelion_argument": "325.8413968555445",
        "aphelion_distance": "2.400552464277031",
        "perihelion_time": "2456281.779672815308",
        "mean_anomaly": "13.1100512918874",
        "mean_motion": ".4564729088070797",
        "equinox": "J2000",
        "orbit_class": {
            "orbit_class_type": "APO",
            "orbit_class_description": "Near-Earth asteroid orbits which cross the Earth’s orbit similar to that of 1862 Apollo",
            "orbit_class_range": "a (semi-major axis) > 1.0 AU; q (perihelion) < 1.017 AU"
        }
    },
    "is_sentry_object": false
}